{
"type": "FeatureCollection",
"name": " park_playground",
"crs": { "type": "name", "properties": { "name": "urn:ogc:def:crs:OGC:1.3:CRS84" } },
"features": [
{ "type": "Feature", "properties": { "id": null, "Name": null, "Number": null, "Area": null }, "geometry": { "type": "MultiPolygon", "coordinates": [ [ [ [ 72.832321906872892, 19.113902787863776 ], [ 72.83280058078509, 19.11387584326064 ], [ 72.833083711311858, 19.113810406349018 ], [ 72.83310204350424, 19.113795009424877 ], [ 72.833118338786363, 19.113777687883495 ], [ 72.833130560247952, 19.113735346330277 ], [ 72.833128523337692, 19.113683381681962 ], [ 72.833079637491338, 19.113571753863663 ], [ 72.832949275234412, 19.113196452887436 ], [ 72.83293909068307, 19.113188754396958 ], [ 72.832908537029112, 19.113182980528865 ], [ 72.832629480322851, 19.113231096090168 ], [ 72.832435973847694, 19.113244568444824 ], [ 72.832197655346747, 19.113240719200743 ], [ 72.832194914362859, 19.113265779814011 ], [ 72.83229186238114, 19.113870204039362 ], [ 72.832321906872892, 19.113902787863776 ] ] ] ] } },
{ "type": "Feature", "properties": { "id": 1, "Name": "Kishore Kumar Bagh & Kaifi Azmi Park", "Number": 1, "Area": 17700.0 }, "geometry": { "type": "MultiPolygon", "coordinates": [ [ [ [ 72.830146486710248, 19.112721070427941 ], [ 72.832067319112952, 19.111660786965075 ], [ 72.832073993548391, 19.11162003690654 ], [ 72.832091963182293, 19.111547268919857 ], [ 72.832115580415433, 19.111492935468924 ], [ 72.832223398218872, 19.111404643573074 ], [ 72.832325055004972, 19.111377476826405 ], [ 72.83242465811864, 19.111377476826405 ], [ 72.832505778180277, 19.111392030441245 ], [ 72.832560200500112, 19.111404643573074 ], [ 72.834053280597814, 19.110640534352807 ], [ 72.833845515750824, 19.110355685563263 ], [ 72.83242578929638, 19.111127470674269 ], [ 72.831800457845119, 19.111437338495897 ], [ 72.830223889300314, 19.112253385136029 ], [ 72.830069084120211, 19.112328445827558 ], [ 72.830062973389417, 19.112703748774056 ], [ 72.830146486710248, 19.112721070427941 ] ] ] ] } },
{ "type": "Feature", "properties": { "id": null, "Name": null, "Number": null, "Area": null }, "geometry": { "type": "MultiPolygon", "coordinates": [ [ [ [ 72.833405543133608, 19.112809603297254 ], [ 72.833634695538407, 19.112525720559489 ], [ 72.833790519173633, 19.112309199499649 ], [ 72.833801722180112, 19.112272631470439 ], [ 72.833792556083893, 19.112243761967989 ], [ 72.833299623799874, 19.111908875371164 ], [ 72.833231387305986, 19.111862684063205 ], [ 72.833144293012708, 19.112005088197982 ], [ 72.833058023933816, 19.112128546181939 ], [ 72.832936035317616, 19.112243761967989 ], [ 72.832935016862493, 19.112262045986796 ], [ 72.832942146048438, 19.112275518420411 ], [ 72.833405543133608, 19.112809603297254 ] ] ] ] } },
{ "type": "Feature", "properties": { "id": null, "Name": null, "Number": null, "Area": null }, "geometry": { "type": "MultiPolygon", "coordinates": [ [ [ [ 72.834120498636523, 19.113129091083575 ], [ 72.834284469912802, 19.112935666322812 ], [ 72.834065502059374, 19.11275956298563 ], [ 72.834043096046457, 19.112758600671796 ], [ 72.833893383142012, 19.112952025639693 ], [ 72.834120498636523, 19.113129091083575 ] ] ] ] } },
{ "type": "Feature", "properties": { "id": null, "Name": null, "Number": null, "Area": null }, "geometry": { "type": "MultiPolygon", "coordinates": [ [ [ [ 72.836029083554465, 19.113156035808412 ], [ 72.83614518743957, 19.112907759249104 ], [ 72.836208331657787, 19.112688351746847 ], [ 72.836275549696495, 19.112395807957601 ], [ 72.836320361722329, 19.112159078065041 ], [ 72.83635498919682, 19.111858834786954 ], [ 72.836273512786263, 19.111833814489177 ], [ 72.835784654322737, 19.111741431818416 ], [ 72.835762248309834, 19.111751055015691 ], [ 72.835762248309834, 19.111926197108321 ], [ 72.835739842296903, 19.112128283907765 ], [ 72.835666513527386, 19.112341918255758 ], [ 72.835597258578389, 19.112580572516293 ], [ 72.835495413065146, 19.11282307568624 ], [ 72.836029083554465, 19.113156035808412 ] ] ] ] } },
{ "type": "Feature", "properties": { "id": null, "Name": null, "Number": null, "Area": null }, "geometry": { "type": "MultiPolygon", "coordinates": [ [ [ [ 72.835454674859847, 19.112384260165836 ], [ 72.835503560706201, 19.112145605621944 ], [ 72.835224503999953, 19.112103263650766 ], [ 72.835151175230436, 19.112291877802615 ], [ 72.835454674859847, 19.112384260165836 ] ] ] ] } },
{ "type": "Feature", "properties": { "id": null, "Name": null, "Number": null, "Area": null }, "geometry": { "type": "MultiPolygon", "coordinates": [ [ [ [ 72.832914647759836, 19.115619534953169 ], [ 72.83292279540089, 19.115394357258818 ], [ 72.832912610849576, 19.115257710816127 ], [ 72.832849466631387, 19.115111441259359 ], [ 72.832816876067142, 19.115080647651968 ], [ 72.832490970424786, 19.115084496853203 ], [ 72.832397272552612, 19.115090270654896 ], [ 72.832348386706272, 19.115138385661123 ], [ 72.832334128334423, 19.115523305206779 ], [ 72.83244819530924, 19.115613761169957 ], [ 72.832914647759836, 19.115619534953169 ] ] ] ] } },
{ "type": "Feature", "properties": { "id": 6, "Name": "Manoranjan Park", "Number": 6, "Area": 2800.0 }, "geometry": { "type": "MultiPolygon", "coordinates": [ [ [ [ 72.834309931291102, 19.110399952637074 ], [ 72.834378167784962, 19.110356647891077 ], [ 72.834533991420216, 19.110301795196527 ], [ 72.834642966119375, 19.110273887678279 ], [ 72.834726479440207, 19.110264264395031 ], [ 72.83496989021684, 19.110270038365048 ], [ 72.835006554601591, 19.110048702703562 ], [ 72.834615467830787, 19.110069873953552 ], [ 72.834408721438948, 19.110116065762323 ], [ 72.834208085777874, 19.110201713040286 ], [ 72.834309931291102, 19.110399952637074 ] ] ] ] } },
{ "type": "Feature", "properties": { "id": null, "Name": null, "Number": null, "Area": null }, "geometry": { "type": "MultiPolygon", "coordinates": [ [ [ [ 72.83552291135365, 19.110369158152182 ], [ 72.836020935913368, 19.110450955990032 ], [ 72.836105467689336, 19.110179579478313 ], [ 72.835857983092197, 19.110123764395858 ], [ 72.835580963296195, 19.110084308895175 ], [ 72.83552291135365, 19.110369158152182 ] ] ] ] } },
{ "type": "Feature", "properties": { "id": null, "Name": null, "Number": null, "Area": null }, "geometry": { "type": "MultiPolygon", "coordinates": [ [ [ [ 72.832042850166516, 19.112158115747697 ], [ 72.832076817856844, 19.11219146223446 ], [ 72.832115345794989, 19.11221916111792 ], [ 72.832158899116394, 19.112244485807306 ], [ 72.832199102182287, 19.112265062114574 ], [ 72.8322451681953, 19.112284847022991 ], [ 72.832294584463781, 19.112294343778196 ], [ 72.832371811174269, 19.112250498185652 ], [ 72.832259781109727, 19.112050336171514 ], [ 72.832042850166516, 19.112158115747697 ] ] ] ] } },
{ "type": "Feature", "properties": { "id": 4, "Name": "Manoj Kumar Garden", "Number": 4, "Area": 1700.0 }, "geometry": { "type": "MultiPolygon", "coordinates": [ [ [ [ 72.831309562471276, 19.112505511939212 ], [ 72.831419555625544, 19.112609441959926 ], [ 72.831541770241444, 19.11269989951737 ], [ 72.831704723062614, 19.112773035378694 ], [ 72.831743424357626, 19.11272107042792 ], [ 72.831733239806326, 19.112493964155099 ], [ 72.831694538511272, 19.11238810942983 ], [ 72.831643615754658, 19.112349616785654 ], [ 72.831586582267263, 19.112341918255741 ], [ 72.831543807151704, 19.112339993623205 ], [ 72.831309562471276, 19.112505511939212 ] ] ] ] } },
{ "type": "Feature", "properties": { "id": 3, "Name": "Lokmanya Tilak Udyan", "Number": 3, "Area": 7775.0 }, "geometry": { "type": "MultiPolygon", "coordinates": [ [ [ [ 72.833222221209752, 19.113617944694148 ], [ 72.83328332851768, 19.113733421713949 ], [ 72.83380328720115, 19.113482586090395 ], [ 72.833711315297421, 19.113372593301555 ], [ 72.832978839685708, 19.112445178450532 ], [ 72.832926193195235, 19.112379016609403 ], [ 72.832876152966705, 19.112320570891494 ], [ 72.832776072509589, 19.112394448902258 ], [ 72.832677382058847, 19.112440417425624 ], [ 72.832724642274698, 19.112546801673552 ], [ 72.833222221209752, 19.113617944694148 ] ] ] ] } },
{ "type": "Feature", "properties": { "id": null, "Name": null, "Number": null, "Area": null }, "geometry": { "type": "MultiPolygon", "coordinates": [ [ [ [ 72.832393198732007, 19.112484341001053 ], [ 72.832442084578389, 19.112538230656483 ], [ 72.832529671719769, 19.112622914365225 ], [ 72.832548003912137, 19.112936628635602 ], [ 72.832468564411798, 19.113007839767459 ], [ 72.832444121488649, 19.113050181506992 ], [ 72.832525597899206, 19.113102146354336 ], [ 72.832833171349165, 19.113055955379728 ], [ 72.832852848823762, 19.113038521130257 ], [ 72.832627201563682, 19.112482820227751 ], [ 72.832598706858491, 19.112436491521667 ], [ 72.832508858688939, 19.112462687859683 ], [ 72.832393198732007, 19.112484341001053 ] ] ] ] } },
{ "type": "Feature", "properties": { "id": null, "Name": null, "Number": null, "Area": null }, "geometry": { "type": "MultiPolygon", "coordinates": [ [ [ [ 72.832332242858541, 19.111525923637668 ], [ 72.832330097462943, 19.111526820975538 ], [ 72.832327968925568, 19.111527753468174 ], [ 72.832325857891547, 19.111528720832943 ], [ 72.832323765000751, 19.111529722776645 ], [ 72.832321690887511, 19.111530758995585 ], [ 72.832319636180515, 19.111531829175679 ], [ 72.832317601502524, 19.111532932992571 ], [ 72.832315587470234, 19.111534070111681 ], [ 72.832313594694128, 19.111535240188356 ], [ 72.832311623778196, 19.111536442867944 ], [ 72.832309675319834, 19.111537677785918 ], [ 72.832307749909603, 19.111538944567972 ], [ 72.832305848131085, 19.111540242830142 ], [ 72.832303970560716, 19.111541572178925 ], [ 72.832302117767611, 19.111542932211403 ], [ 72.832300290313299, 19.111544322515346 ], [ 72.832298488751732, 19.111545742669357 ], [ 72.832296713628907, 19.111547192242984 ], [ 72.832294965482902, 19.111548670796861 ], [ 72.832293244843569, 19.111550177882847 ], [ 72.832291552232434, 19.111551713044147 ], [ 72.832289888162506, 19.111553275815439 ], [ 72.832288253138188, 19.111554865723065 ], [ 72.832286647655025, 19.111556482285113 ], [ 72.832285072199667, 19.111558125011605 ], [ 72.832283527249629, 19.111559793404648 ], [ 72.832282013273172, 19.111561486958532 ], [ 72.832280530729165, 19.111563205159953 ], [ 72.832279080067011, 19.111564947488127 ], [ 72.832277661726351, 19.111566713414945 ], [ 72.832276276137122, 19.111568502405166 ], [ 72.832274923719282, 19.111570313916548 ], [ 72.83227360488273, 19.111572147400022 ], [ 72.832272320027229, 19.111574002299857 ], [ 72.832271069542216, 19.111575878053834 ], [ 72.832269853806693, 19.111577774093419 ], [ 72.832268673189148, 19.111579689843918 ], [ 72.832267528047467, 19.111581624724678 ], [ 72.832266418728679, 19.111583578149226 ], [ 72.832265345569056, 19.11158554952549 ], [ 72.832264308893869, 19.111587538255943 ], [ 72.832263309017321, 19.111589543737804 ], [ 72.832262346242487, 19.111591565363213 ], [ 72.832261420861172, 19.111593602519413 ], [ 72.832260533153857, 19.111595654588957 ], [ 72.832259683389609, 19.111597720949849 ], [ 72.832258871825985, 19.111599800975785 ], [ 72.832258098708991, 19.111601894036312 ], [ 72.83225736427292, 19.111603999497021 ], [ 72.832256668740428, 19.111606116719745 ], [ 72.832256012322276, 19.111608245062769 ], [ 72.832255395217473, 19.111610383880983 ], [ 72.83225481761302, 19.11161253252612 ], [ 72.832254279684008, 19.111614690346922 ], [ 72.832253781593508, 19.111616856689363 ], [ 72.832253323492438, 19.111619030896819 ], [ 72.832252905519681, 19.111621212310297 ], [ 72.832252527801927, 19.111623400268606 ], [ 72.832252190453644, 19.111625594108585 ], [ 72.832251893577094, 19.111627793165272 ], [ 72.832251637262246, 19.111629996772148 ], [ 72.832251421586832, 19.111632204261301 ], [ 72.832251246616153, 19.111634414963643 ], [ 72.832251112403299, 19.111636628209105 ], [ 72.832251018988927, 19.111638843326855 ], [ 72.832250966401347, 19.111641059645503 ], [ 72.832250954656516, 19.111643276493282 ], [ 72.832250983757987, 19.111645493198264 ], [ 72.832251053696922, 19.111647709088569 ], [ 72.832251164452146, 19.111649923492564 ], [ 72.832251315990078, 19.111652135739071 ], [ 72.832251508264775, 19.11165434515755 ], [ 72.832251741217988, 19.111656551078344 ], [ 72.832252014779087, 19.111658752832824 ], [ 72.832252328865167, 19.111660949753659 ], [ 72.832252683381043, 19.111663141174951 ], [ 72.83225307821921, 19.111665326432483 ], [ 72.832253513260042, 19.111667504863917 ], [ 72.832253988371662, 19.111669675808965 ], [ 72.832254503410056, 19.11167183860962 ], [ 72.832255058219133, 19.111673992610342 ], [ 72.832255652630721, 19.111676137158252 ], [ 72.832256286464656, 19.111678271603338 ], [ 72.832256959528834, 19.111680395298656 ], [ 72.832257671619232, 19.111682507600516 ], [ 72.832258422520027, 19.111684607868689 ], [ 72.832259212003621, 19.111686695466577 ], [ 72.832260039830715, 19.111688769761436 ], [ 72.832260905750417, 19.111690830124552 ], [ 72.832261809500224, 19.111692875931432 ], [ 72.832262750806265, 19.11169490656199 ], [ 72.8322637293832, 19.111696921400746 ], [ 72.83226474493442, 19.111698919837007 ], [ 72.832265797152132, 19.111700901265053 ], [ 72.832266885717388, 19.111702865084311 ], [ 72.832268010300254, 19.111704810699553 ], [ 72.832269170559897, 19.111706737521065 ], [ 72.832270366144613, 19.111708644964835 ], [ 72.832271596691996, 19.111710532452705 ], [ 72.832272861829139, 19.111712399412603 ], [ 72.832274161172535, 19.111714245278637 ], [ 72.832275494328343, 19.11171606949134 ], [ 72.83227686089252, 19.111717871497788 ], [ 72.832278260450835, 19.111719650751798 ], [ 72.832279692579107, 19.111721406714086 ], [ 72.832281156843237, 19.111723138852415 ], [ 72.832282652799435, 19.111724846641778 ], [ 72.832284179994232, 19.111726529564553 ], [ 72.832285737964796, 19.111728187110632 ], [ 72.832287326238855, 19.111729818777647 ], [ 72.832288944335048, 19.11173142407101 ], [ 72.832290591762899, 19.111733002504184 ], [ 72.832292268023096, 19.111734553598726 ], [ 72.832293972607545, 19.111736076884522 ], [ 72.832295704999609, 19.111737571899859 ], [ 72.832297464674213, 19.11173903819159 ], [ 72.832299251097965, 19.111740475315305 ], [ 72.832301063729417, 19.111741882835396 ], [ 72.832302902019194, 19.111743260325252 ], [ 72.832304765410044, 19.111744607367363 ], [ 72.832306653337241, 19.111745923553435 ], [ 72.83230856522853, 19.111747208484548 ], [ 72.832310500504434, 19.111748461771224 ], [ 72.832312458578343, 19.111749683033608 ], [ 72.832314438856784, 19.111750871901524 ], [ 72.832316440739547, 19.111752028014639 ], [ 72.832318463619842, 19.111753151022537 ], [ 72.832320506884557, 19.11175424058483 ], [ 72.832322569914368, 19.111755296371275 ], [ 72.832324652083969, 19.111756318061872 ], [ 72.832326752762285, 19.111757305346938 ], [ 72.832328871312569, 19.111758257927239 ], [ 72.832331007092705, 19.111759175514045 ], [ 72.832333159455345, 19.111760057829237 ], [ 72.832335327748098, 19.111760904605383 ], [ 72.832337511313767, 19.111761715585832 ], [ 72.832339709490512, 19.111762490524775 ], [ 72.832341921612084, 19.111763229187336 ], [ 72.832344147007959, 19.111763931349618 ], [ 72.832346385003646, 19.1117645967988 ], [ 72.83234863492082, 19.111765225333183 ], [ 72.8323508960775, 19.111765816762272 ], [ 72.832353167788355, 19.111766370906782 ], [ 72.83235544936484, 19.111766887598783 ], [ 72.832357740115398, 19.111767366681644 ], [ 72.832360039345701, 19.111767808010164 ], [ 72.832362346358863, 19.11176821145057 ], [ 72.832364660455639, 19.111768576880596 ], [ 72.832366980934594, 19.111768904189471 ], [ 72.832369307092435, 19.111769193277979 ], [ 72.832371638224089, 19.111769444058513 ], [ 72.832373973623007, 19.11176965645506 ], [ 72.832376312581303, 19.111769830403233 ], [ 72.832378654390084, 19.111769965850318 ], [ 72.832380998339488, 19.111770062755252 ], [ 72.83238334371913, 19.111770121088675 ], [ 72.832385689818082, 19.111770140832903 ], [ 72.832388035925263, 19.111770121981937 ], [ 72.832390381329603, 19.111770064541517 ], [ 72.832392725320148, 19.111769968529028 ], [ 72.832395067186482, 19.111769833973586 ], [ 72.832397406218789, 19.111769660915972 ], [ 72.832399741708073, 19.111769449408641 ], [ 72.832402072946493, 19.111769199515685 ], [ 72.832404399227428, 19.111768911312872 ], [ 72.832406719845807, 19.111768584887539 ], [ 72.832409034098205, 19.111768220338618 ], [ 72.832411341283247, 19.111767817776624 ], [ 72.832413640701574, 19.111767377323559 ], [ 72.832415931656243, 19.111766899112926 ], [ 72.832418213452883, 19.111766383289673 ], [ 72.832420485399879, 19.111765830010135 ], [ 72.832422746808604, 19.111765239442025 ], [ 72.832424996993637, 19.111764611764336 ], [ 72.832427235272931, 19.111763947167312 ], [ 72.832429460968072, 19.111763245852391 ], [ 72.832431673404471, 19.111762508032147 ], [ 72.832433871911519, 19.111761733930209 ], [ 72.832436055822868, 19.111760923781205 ], [ 72.832438224476576, 19.111760077830695 ], [ 72.832440377215306, 19.111759196335079 ], [ 72.832442513386582, 19.111758279561531 ], [ 72.832444632342927, 19.111757327787931 ], [ 72.832446733442112, 19.111756341302765 ], [ 72.832448816047247, 19.111755320405031 ], [ 72.832450879527144, 19.111754265404151 ], [ 72.832452923256341, 19.11175317661991 ], [ 72.8324549466154, 19.111752054382304 ], [ 72.832456948991037, 19.111750899031488 ], [ 72.832458929776323, 19.111749710917643 ], [ 72.832460888370903, 19.111748490400892 ], [ 72.832462824181107, 19.111747237851159 ], [ 72.83246473662021, 19.1117459536481 ], [ 72.832466625108552, 19.111744638180948 ], [ 72.832468489073733, 19.111743291848423 ], [ 72.832470327950787, 19.111741915058595 ], [ 72.83247214118235, 19.11174050822877 ], [ 72.832473928218832, 19.111739071785347 ], [ 72.832475688518599, 19.111737606163715 ], [ 72.832477421548091, 19.111736111808099 ], [ 72.832479126782033, 19.111734589171444 ], [ 72.832480803703575, 19.111733038715254 ], [ 72.832482451804438, 19.111731460909461 ], [ 72.832484070585082, 19.111729856232301 ], [ 72.832485659554862, 19.111728225170154 ], [ 72.83248721823216, 19.111726568217392 ], [ 72.832488746144548, 19.111724885876221 ], [ 72.832490242828911, 19.111723178656572 ], [ 72.832491707831622, 19.111721447075894 ], [ 72.832493140708607, 19.11171969165903 ], [ 72.832494541025611, 19.111717912938033 ], [ 72.832495908358155, 19.111716111452044 ], [ 72.832497242291822, 19.111714287747088 ], [ 72.832498542422286, 19.111712442375918 ], [ 72.832499808355493, 19.11171057589787 ], [ 72.832501039707736, 19.111708688878672 ], [ 72.832502236105796, 19.111706781890273 ], [ 72.83250339718704, 19.111704855510684 ], [ 72.832504522599564, 19.111702910323775 ], [ 72.832505612002223, 19.111700946919139 ], [ 72.832506665064841, 19.11169896589189 ], [ 72.832507681468243, 19.111696967842452 ], [ 72.832508660904338, 19.11169495337645 ], [ 72.832509603076275, 19.111692923104449 ], [ 72.832510507698501, 19.111690877641838 ], [ 72.832511374496775, 19.111688817608584 ], [ 72.83251220320841, 19.111686743629086 ], [ 72.832512993582213, 19.111684656331956 ], [ 72.83251374537862, 19.111682556349862 ], [ 72.832514458369786, 19.111680444319294 ], [ 72.83251513233958, 19.111678320880415 ], [ 72.83251576708372, 19.111676186676828 ], [ 72.83251636240982, 19.111674042355414 ], [ 72.832516918137443, 19.111671888566111 ], [ 72.83251743409815, 19.111669725961729 ], [ 72.83251791013555, 19.111667555197755 ], [ 72.83251834610536, 19.111665376932137 ], [ 72.832518741875433, 19.111663191825112 ], [ 72.832519097325815, 19.11166100053898 ], [ 72.832519412348759, 19.11165880373791 ], [ 72.832519686848798, 19.111656602087766 ], [ 72.832519920742726, 19.111654396255854 ], [ 72.83252011395966, 19.111652186910757 ], [ 72.832520266441009, 19.111649974722127 ], [ 72.832520378140572, 19.11164776036048 ], [ 72.832520449024486, 19.111645544496991 ], [ 72.832520479071292, 19.111643327803264 ], [ 72.832520468271852, 19.111641110951194 ], [ 72.832520416629464, 19.11163889461271 ], [ 72.832520324159759, 19.111636679459568 ], [ 72.832520190890762, 19.111634466163189 ], [ 72.832520016862901, 19.111632255394412 ], [ 72.832519802128871, 19.111630047823326 ], [ 72.832519546753815, 19.111627844119035 ], [ 72.832519250815096, 19.111625644949484 ], [ 72.832518914402428, 19.111623450981245 ], [ 72.832518537617773, 19.111621262879304 ], [ 72.832518120575344, 19.111619081306859 ], [ 72.832517663401518, 19.11161690692516 ], [ 72.832517166234908, 19.11161474039325 ], [ 72.832516629226177, 19.111612582367812 ], [ 72.832516052538082, 19.111610433502932 ], [ 72.832515436345432, 19.11160829444993 ], [ 72.832514780835012, 19.111606165857154 ], [ 72.832514086205464, 19.111604048369777 ], [ 72.832513352667362, 19.111601942629608 ], [ 72.832512580443023, 19.111599849274896 ], [ 72.832511769766526, 19.111597768940126 ], [ 72.832510920883564, 19.111595702255862 ], [ 72.832510034051452, 19.111593649848498 ], [ 72.832509109538975, 19.111591612340128 ], [ 72.832508147626356, 19.111589590348313 ], [ 72.832507148605146, 19.111587584485914 ], [ 72.832506112778148, 19.111585595360918 ], [ 72.832505040459338, 19.111583623576216 ], [ 72.832503931973704, 19.111581669729457 ], [ 72.832502787657248, 19.11157973441285 ], [ 72.832501607856798, 19.111577818212993 ], [ 72.832500392929958, 19.111575921710678 ], [ 72.832499143244974, 19.111574045480733 ], [ 72.83249785918062, 19.111572190091849 ], [ 72.832496541126091, 19.111570356106384 ], [ 72.832495189480881, 19.111568544080228 ], [ 72.832493804654703, 19.111566754562595 ], [ 72.832492387067262, 19.111564988095889 ], [ 72.832490937148251, 19.111563245215532 ], [ 72.832489455337125, 19.111561526449773 ], [ 72.832487942083006, 19.111559832319589 ], [ 72.832486397844605, 19.111558163338454 ], [ 72.832484823089914, 19.111556520012247 ], [ 72.832483218296289, 19.11155490283905 ], [ 72.832481583950141, 19.111553312309031 ], [ 72.832479920546817, 19.111551748904276 ], [ 72.832478228590489, 19.111550213098653 ], [ 72.832476508593999, 19.111548705357666 ], [ 72.832474761078686, 19.111547226138306 ], [ 72.832472986574203, 19.111545775888928 ], [ 72.832471185618402, 19.111544355049098 ], [ 72.832469358757152, 19.111542964049473 ], [ 72.832467506544191, 19.111541603311668 ], [ 72.832465629540906, 19.111540273248117 ], [ 72.832463728316185, 19.111538974261958 ], [ 72.832461803446336, 19.111537706746923 ], [ 72.83245985551477, 19.111536471087181 ], [ 72.832457885111907, 19.111535267657278 ], [ 72.832455892834957, 19.111534096821959 ], [ 72.832453879287769, 19.111532958936102 ], [ 72.832451845080669, 19.111531854344612 ], [ 72.832449790830225, 19.111530783382282 ], [ 72.83244771715907, 19.111529746373723 ], [ 72.832445624695737, 19.111528743633247 ], [ 72.832443514074427, 19.111527775464786 ], [ 72.832441385934885, 19.111526842161794 ], [ 72.832439240922156, 19.111525944007152 ], [ 72.832437079686372, 19.11152508127309 ], [ 72.832434902882611, 19.111524254221109 ], [ 72.832432711170654, 19.111523463101875 ], [ 72.832430505214816, 19.111522708155189 ], [ 72.832428285683719, 19.111521989609866 ], [ 72.832426053250074, 19.111521307683702 ], [ 72.832423808590576, 19.111520662583388 ], [ 72.832421552385526, 19.111520054504449 ], [ 72.832419285318821, 19.111519483631191 ], [ 72.832417008077584, 19.111518950136659 ], [ 72.832414721352038, 19.111518454182544 ], [ 72.832412425835315, 19.111517995919172 ], [ 72.832410122223166, 19.111517575485447 ], [ 72.832407811213798, 19.11151719300879 ], [ 72.832405493507707, 19.111516848605142 ], [ 72.832403169807364, 19.111516542378883 ], [ 72.832400840817087, 19.111516274422836 ], [ 72.8323985072428, 19.111516044818224 ], [ 72.832396169791778, 19.111515853634618 ], [ 72.832393829172531, 19.111515700929989 ], [ 72.83239148609448, 19.111515586750613 ], [ 72.832389141267811, 19.111515511131088 ], [ 72.832386795403252, 19.111515474094357 ], [ 72.832384449211816, 19.111515475651625 ], [ 72.832382103404626, 19.111515515802427 ], [ 72.83237975869271, 19.111515594534598 ], [ 72.832377415786752, 19.111515711824264 ], [ 72.832375075396854, 19.111515867635887 ], [ 72.832372738232422, 19.111516061922227 ], [ 72.832370405001825, 19.111516294624412 ], [ 72.832368076412251, 19.111516565671895 ], [ 72.832365753169526, 19.111516874982527 ], [ 72.832363435977811, 19.111517222462556 ], [ 72.832361125539421, 19.111517608006668 ], [ 72.832358822554667, 19.111518031497994 ], [ 72.832356527721586, 19.11151849280818 ], [ 72.832354241735729, 19.111518991797404 ], [ 72.832351965289988, 19.111519528314417 ], [ 72.832349699074328, 19.111520102196604 ], [ 72.832332242858541, 19.111525923637668 ] ] ] ] } },
{ "type": "Feature", "properties": { "id": null, "Name": null, "Number": null, "Area": null }, "geometry": { "type": "MultiPolygon", "coordinates": [ [ [ [ 72.83328332851768, 19.113733421713949 ], [ 72.833286820121572, 19.113737112480621 ], [ 72.833290379146149, 19.113740745298784 ], [ 72.833294004514329, 19.113744319069045 ], [ 72.833297695128962, 19.113747832709876 ], [ 72.833301449873176, 19.113751285157967 ], [ 72.833305267610669, 19.113754675368497 ], [ 72.833309147186071, 19.113758002315507 ], [ 72.833313087425338, 19.11376126499216 ], [ 72.833317087136024, 19.113764462411091 ], [ 72.833321145107703, 19.11376759360466 ], [ 72.833325260112318, 19.113770657625288 ], [ 72.833329430904541, 19.113773653545717 ], [ 72.833333656222209, 19.113776580459298 ], [ 72.833337934786556, 19.113779437480275 ], [ 72.833342265302804, 19.113782223744018 ], [ 72.833346646460413, 19.113784938407342 ], [ 72.833351076933496, 19.113787580648708 ], [ 72.833355555381303, 19.113790149668503 ], [ 72.8333600804485, 19.113792644689269 ], [ 72.833364650765674, 19.113795064955948 ], [ 72.833369264949724, 19.113797409736094 ], [ 72.833373921604249, 19.11379967832012 ], [ 72.833378619320001, 19.113801870021486 ], [ 72.83338335667537, 19.113803984176922 ], [ 72.833388132236635, 19.11380602014663 ], [ 72.833392944558611, 19.113807977314472 ], [ 72.833397792184954, 19.113809855088149 ], [ 72.833402673648592, 19.113811652899397 ], [ 72.833407587472294, 19.113813370204156 ], [ 72.833412532168978, 19.11381500648271 ], [ 72.833417506242228, 19.113816561239886 ], [ 72.833422508186771, 19.11381803400517 ], [ 72.833427536488855, 19.11381942433286 ], [ 72.833432589626781, 19.11382073180221 ], [ 72.833437666071305, 19.113821956017542 ], [ 72.833442764286175, 19.113823096608368 ], [ 72.833447882728507, 19.11382415322953 ], [ 72.833453019849316, 19.113825125561249 ], [ 72.833458174093963, 19.113826013309279 ], [ 72.833463343902622, 19.113826816204966 ], [ 72.833468527710778, 19.113827534005317 ], [ 72.833473723949638, 19.113828166493121 ], [ 72.833478931046685, 19.113828713476973 ], [ 72.833484147426077, 19.113829174791331 ], [ 72.833489371509216, 19.113829550296586 ], [ 72.833494601715131, 19.113829839879109 ], [ 72.83349983646103, 19.113830043451262 ], [ 72.833505074162687, 19.113830160951437 ], [ 72.833510313235067, 19.113830192344075 ], [ 72.833515552092649, 19.113830137619672 ], [ 72.83352078915, 19.113829996794799 ], [ 72.833526022822241, 19.113829769912062 ], [ 72.833531251525528, 19.113829457040129 ], [ 72.833536473677498, 19.113829058273691 ], [ 72.833541687697775, 19.113828573733404 ], [ 72.833546892008428, 19.113828003565928 ], [ 72.833552085034512, 19.113827347943793 ], [ 72.833557265204448, 19.113826607065409 ], [ 72.833562430950579, 19.113825781154997 ], [ 72.833567580709598, 19.113824870462494 ], [ 72.833572712923029, 19.113823875263499 ], [ 72.833577826037725, 19.113822795859189 ], [ 72.833582918506309, 19.113821632576222 ], [ 72.833587988787656, 19.113820385766633 ], [ 72.833593035347349, 19.113819055807749 ], [ 72.833598056658175, 19.113817643102042 ], [ 72.833603051200498, 19.113816148077049 ], [ 72.833608017462851, 19.113814571185195 ], [ 72.833612953942307, 19.113812912903693 ], [ 72.833617859144923, 19.113811173734383 ], [ 72.833622731586289, 19.113809354203585 ], [ 72.833627569791801, 19.113807454861945 ], [ 72.833632372297302, 19.113805476284252 ], [ 72.833637137649433, 19.113803419069274 ], [ 72.833641864406061, 19.113801283839585 ], [ 72.833646551136709, 19.113799071241363 ], [ 72.833651196423048, 19.113796781944195 ], [ 72.833655798859311, 19.1137944166409 ], [ 72.833660357052608, 19.113791976047271 ], [ 72.833664869623547, 19.113789460901899 ], [ 72.833669335206466, 19.113786871965942 ], [ 72.833673752449968, 19.113784210022878 ], [ 72.833678120017268, 19.113781475878287 ], [ 72.833682436586599, 19.113778670359597 ], [ 72.833686700851672, 19.113775794315835 ], [ 72.833690911521941, 19.113772848617373 ], [ 72.833695067323191, 19.113769834155654 ], [ 72.833699166997746, 19.113766751842942 ], [ 72.833703209304915, 19.113763602612025 ], [ 72.833707193021382, 19.113760387415958 ], [ 72.833711116941572, 19.11375710722773 ], [ 72.833714979877968, 19.113753763040037 ], [ 72.833718780661556, 19.113750355864909 ], [ 72.833722518142096, 19.113746886733466 ], [ 72.833726191188532, 19.11374335669554 ], [ 72.833729798689276, 19.113739766819439 ], [ 72.833733339552623, 19.11373611819155 ], [ 72.833736812706974, 19.113732411916054 ], [ 72.833740217101266, 19.113728649114563 ], [ 72.83374355170524, 19.113724830925815 ], [ 72.833746815509727, 19.113720958505301 ], [ 72.83375000752703, 19.113717033024923 ], [ 72.833753126791152, 19.113713055672626 ], [ 72.833756172358079, 19.113709027652085 ], [ 72.833759143306168, 19.113704950182285 ], [ 72.833762038736324, 19.11370082449718 ], [ 72.83376485777228, 19.113696651845327 ], [ 72.833767599560957, 19.113692433489476 ], [ 72.833770263272569, 19.113688170706222 ], [ 72.83377284810102, 19.113683864785607 ], [ 72.833775353264073, 19.113679517030722 ], [ 72.833777778003579, 19.113675128757315 ], [ 72.833780121585747, 19.113670701293412 ], [ 72.83378238330134, 19.113666235978876 ], [ 72.833784562465908, 19.113661734165042 ], [ 72.833786658419939, 19.113657197214287 ], [ 72.833788670529188, 19.113652626499608 ], [ 72.833790598184692, 19.113648023404259 ], [ 72.833792440803109, 19.113643389321236 ], [ 72.833794197826805, 19.113638725652969 ], [ 72.833795868724053, 19.113634033810797 ], [ 72.833797452989188, 19.113629315214613 ], [ 72.833798950142764, 19.113624571292398 ], [ 72.833800359731697, 19.113619803479793 ], [ 72.833801681329419, 19.113615013219682 ], [ 72.83380291453598, 19.11361020196173 ], [ 72.833804058978131, 19.113605371161956 ], [ 72.833805114309598, 19.113600522282301 ], [ 72.833806080210948, 19.113595656790174 ], [ 72.833806956389907, 19.113590776158013 ], [ 72.833807742581314, 19.113585881862832 ], [ 72.833808438547237, 19.113580975385794 ], [ 72.833809044077057, 19.113576058211731 ], [ 72.833809558987525, 19.113571131828721 ], [ 72.833809983122805, 19.113566197727632 ], [ 72.833810316354558, 19.113561257401663 ], [ 72.833810558581931, 19.113556312345899 ], [ 72.833810709731608, 19.113551364056853 ], [ 72.833810769757875, 19.113546414032026 ], [ 72.833810738642526, 19.113541463769437 ], [ 72.833810616395013, 19.113536514767169 ], [ 72.833810403052311, 19.113531568522944 ], [ 72.83381009867901, 19.113526626533634 ], [ 72.83380970336718, 19.113521690294821 ], [ 72.833809217236492, 19.113516761300364 ], [ 72.833808640434057, 19.11351184104192 ], [ 72.833807973134412, 19.113506931008491 ], [ 72.833807215539508, 19.113502032686011 ], [ 72.833806367878623, 19.113497147556835 ], [ 72.83380543040829, 19.113492277099365 ], [ 72.833804403412188, 19.113487422787532 ], [ 72.83380328720115, 19.113482586090395 ], [ 72.83328332851768, 19.113733421713949 ] ] ] ] } },
{ "type": "Feature", "properties": { "id": null, "Name": null, "Number": null, "Area": null }, "geometry": { "type": "MultiPolygon", "coordinates": [ [ [ [ 72.832979902212315, 19.114377507224283 ], [ 72.832876020840999, 19.114166262490546 ], [ 72.832841017335454, 19.114167329383811 ], [ 72.832405167234015, 19.114190801034077 ], [ 72.832398392361966, 19.114224941610328 ], [ 72.832348709966993, 19.114224941610328 ], [ 72.832360001420398, 19.114436186269089 ], [ 72.83267842040641, 19.114419116003656 ], [ 72.832934736398698, 19.114397778169394 ], [ 72.832979902212315, 19.114377507224283 ] ] ] ] } }
]
}
