{
"type": "FeatureCollection",
"name": "river_nallah",
"crs": { "type": "name", "properties": { "name": "urn:ogc:def:crs:OGC:1.3:CRS84" } },
"features": [
{ "type": "Feature", "properties": { "full_id": "w73043478", "osm_id": "73043478", "osm_type": "way", "substance": null, "man_made": null, "leisure": null, "waterway": "drain", "natural": null, "usage": null, "route": null, "tunnel": null, "seamark_ty": null, "seamark_sh": null, "start_date": null, "wetland": null, "surface": null, "floating": null, "seasonal": null, "voltage": null, "railway": null, "passenger_": null, "gauge": null, "frequency": null, "electrifie": null, "lit": null, "alt_name_e": null, "tidal": null, "mooring": null, "highway": null, "designatio": null, "covered": null, "toll": null, "to": null, "motor_vehi": null, "horse": null, "from": null, "duration": null, "motorcycle": null, "motorcar": null, "foot": null, "name_gu": null, "type": null, "wikipedia": null, "wikimedia_": null, "wikidata": null, "bicycle": null, "width": null, "name_mr": null, "name_hi": null, "name_en": null, "intermitte": null, "layer": null, "bridge": null, "location": null, "boat": null, "name": "Irla Nala" }, "geometry": { "type": "MultiLineString", "coordinates": [ [ [ 72.844337, 19.1104898 ], [ 72.8442913, 19.1105115 ], [ 72.8442332, 19.1105601 ], [ 72.8442546, 19.1106716 ], [ 72.8442653, 19.1107831 ], [ 72.8442761, 19.1108947 ], [ 72.8442653, 19.1110163 ], [ 72.844201, 19.1111177 ], [ 72.8440293, 19.1111886 ], [ 72.8439542, 19.1112089 ], [ 72.8438255, 19.1111684 ], [ 72.8436967, 19.1111278 ], [ 72.8436109, 19.1111481 ], [ 72.843525, 19.1112697 ], [ 72.8434607, 19.1113407 ], [ 72.8432725, 19.1113916 ], [ 72.8431549, 19.1114142 ], [ 72.8429661, 19.1114844 ], [ 72.8427608, 19.1114833 ], [ 72.8425412, 19.1114976 ], [ 72.8423771, 19.1115232 ], [ 72.8422161, 19.1114928 ], [ 72.8420874, 19.1114218 ], [ 72.8420552, 19.1112697 ], [ 72.8420981, 19.1111278 ], [ 72.8420337, 19.1108744 ], [ 72.8419479, 19.1107223 ], [ 72.8418285, 19.1106332 ], [ 72.8416273, 19.1106737 ], [ 72.8413832, 19.1107675 ], [ 72.8412491, 19.1107371 ], [ 72.8411284, 19.1106104 ], [ 72.8409567, 19.110547 ], [ 72.8408253, 19.1104836 ], [ 72.8406, 19.1104228 ], [ 72.8403801, 19.1103569 ], [ 72.8400689, 19.1102885 ], [ 72.8396478, 19.1102378 ], [ 72.8392857, 19.1102885 ], [ 72.8390926, 19.1102505 ], [ 72.8387332, 19.1103316 ], [ 72.8383542, 19.1103819 ], [ 72.8374952, 19.1102775 ], [ 72.8361827, 19.1101151 ], [ 72.8351117, 19.1098893 ], [ 72.8346056, 19.1099121 ], [ 72.8340941, 19.110033 ], [ 72.8324319, 19.1109806 ], [ 72.8302044, 19.1121212 ], [ 72.8298844, 19.1122939 ], [ 72.8286722, 19.1129235 ], [ 72.8285081, 19.1130717 ], [ 72.8283759, 19.1133396 ], [ 72.8282525, 19.1137831 ], [ 72.8281881, 19.1142773 ], [ 72.8281962, 19.1152733 ], [ 72.8281935, 19.115917 ], [ 72.8281881, 19.1163631 ], [ 72.828113, 19.1166545 ], [ 72.8278689, 19.1169611 ], [ 72.8276731, 19.1171816 ], [ 72.827244, 19.117577 ], [ 72.8269865, 19.1178355 ], [ 72.8267236, 19.1180179 ], [ 72.8265573, 19.1181244 ], [ 72.8260048, 19.1184944 ], [ 72.8255139, 19.1189632 ], [ 72.8253643, 19.1190328 ], [ 72.8251049, 19.1191536 ], [ 72.8246123, 19.1193078 ] ] ] } },
{ "type": "Feature", "properties": { "full_id": "w73045106", "osm_id": "73045106", "osm_type": "way", "substance": null, "man_made": null, "leisure": null, "waterway": "drain", "natural": null, "usage": null, "route": null, "tunnel": null, "seamark_ty": null, "seamark_sh": null, "start_date": null, "wetland": null, "surface": null, "floating": null, "seasonal": null, "voltage": null, "railway": null, "passenger_": null, "gauge": null, "frequency": null, "electrifie": null, "lit": null, "alt_name_e": null, "tidal": null, "mooring": null, "highway": null, "designatio": null, "covered": null, "toll": null, "to": null, "motor_vehi": null, "horse": null, "from": null, "duration": null, "motorcycle": null, "motorcar": null, "foot": null, "name_gu": null, "type": null, "wikipedia": null, "wikimedia_": null, "wikidata": null, "bicycle": null, "width": null, "name_mr": null, "name_hi": null, "name_en": null, "intermitte": null, "layer": null, "bridge": null, "location": null, "boat": null, "name": null }, "geometry": { "type": "MultiLineString", "coordinates": [ [ [ 72.8271938, 19.1254172 ], [ 72.8272582, 19.1252854 ], [ 72.8273977, 19.1251435 ], [ 72.8275049, 19.1250523 ], [ 72.8276337, 19.1248698 ], [ 72.8276766, 19.124738 ], [ 72.8276873, 19.1245049 ], [ 72.8277517, 19.1243427 ], [ 72.8278054, 19.1242109 ], [ 72.8278375, 19.1239575 ], [ 72.8274743, 19.1236116 ], [ 72.8274139, 19.1233118 ], [ 72.8273795, 19.1229983 ], [ 72.8273655, 19.1228627 ], [ 72.8273333, 19.1227817 ], [ 72.8273655, 19.1225586 ], [ 72.8274942, 19.1222343 ], [ 72.8275297, 19.1221264 ] ] ] } },
{ "type": "Feature", "properties": { "full_id": "w73045111", "osm_id": "73045111", "osm_type": "way", "substance": null, "man_made": null, "leisure": null, "waterway": "stream", "natural": null, "usage": null, "route": null, "tunnel": null, "seamark_ty": null, "seamark_sh": null, "start_date": null, "wetland": null, "surface": null, "floating": null, "seasonal": null, "voltage": null, "railway": null, "passenger_": null, "gauge": null, "frequency": null, "electrifie": null, "lit": null, "alt_name_e": null, "tidal": null, "mooring": null, "highway": null, "designatio": null, "covered": null, "toll": null, "to": null, "motor_vehi": null, "horse": null, "from": null, "duration": null, "motorcycle": null, "motorcar": null, "foot": null, "name_gu": null, "type": null, "wikipedia": null, "wikimedia_": null, "wikidata": null, "bicycle": null, "width": null, "name_mr": null, "name_hi": null, "name_en": null, "intermitte": null, "layer": null, "bridge": null, "location": null, "boat": null, "name": null }, "geometry": { "type": "MultiLineString", "coordinates": [ [ [ 72.8217022, 19.1213563 ], [ 72.8218317, 19.1213979 ], [ 72.8220225, 19.1214841 ], [ 72.8221799, 19.1215319 ], [ 72.8223015, 19.1216159 ], [ 72.8224087, 19.1217274 ], [ 72.8224838, 19.1217781 ], [ 72.822562, 19.1218125 ], [ 72.8226448, 19.1218491 ], [ 72.8227413, 19.1219403 ], [ 72.8227843, 19.1220417 ], [ 72.8226877, 19.1221734 ], [ 72.8226126, 19.1222748 ], [ 72.8226341, 19.1224877 ] ] ] } },
{ "type": "Feature", "properties": { "full_id": "w73045114", "osm_id": "73045114", "osm_type": "way", "substance": null, "man_made": null, "leisure": null, "waterway": "stream", "natural": null, "usage": null, "route": null, "tunnel": null, "seamark_ty": null, "seamark_sh": null, "start_date": null, "wetland": null, "surface": null, "floating": null, "seasonal": null, "voltage": null, "railway": null, "passenger_": null, "gauge": null, "frequency": null, "electrifie": null, "lit": null, "alt_name_e": null, "tidal": null, "mooring": null, "highway": null, "designatio": null, "covered": null, "toll": null, "to": null, "motor_vehi": null, "horse": null, "from": null, "duration": null, "motorcycle": null, "motorcar": null, "foot": null, "name_gu": null, "type": null, "wikipedia": null, "wikimedia_": null, "wikidata": null, "bicycle": null, "width": null, "name_mr": null, "name_hi": null, "name_en": null, "intermitte": null, "layer": null, "bridge": null, "location": null, "boat": null, "name": null }, "geometry": { "type": "MultiLineString", "coordinates": [ [ [ 72.8232671, 19.1218491 ], [ 72.823192, 19.1217578 ], [ 72.8230954, 19.1216767 ], [ 72.8229666, 19.1215956 ], [ 72.8228272, 19.121545 ], [ 72.8227306, 19.1215652 ], [ 72.8226984, 19.1216565 ], [ 72.8226555, 19.1217477 ], [ 72.822562, 19.1218125 ] ] ] } },
{ "type": "Feature", "properties": { "full_id": "w73045121", "osm_id": "73045121", "osm_type": "way", "substance": null, "man_made": null, "leisure": null, "waterway": "stream", "natural": null, "usage": null, "route": null, "tunnel": null, "seamark_ty": null, "seamark_sh": null, "start_date": null, "wetland": null, "surface": null, "floating": null, "seasonal": null, "voltage": null, "railway": null, "passenger_": null, "gauge": null, "frequency": null, "electrifie": null, "lit": null, "alt_name_e": null, "tidal": null, "mooring": null, "highway": null, "designatio": null, "covered": null, "toll": null, "to": null, "motor_vehi": null, "horse": null, "from": null, "duration": null, "motorcycle": null, "motorcar": null, "foot": null, "name_gu": null, "type": null, "wikipedia": null, "wikimedia_": null, "wikidata": null, "bicycle": null, "width": null, "name_mr": null, "name_hi": null, "name_en": null, "intermitte": null, "layer": null, "bridge": null, "location": null, "boat": null, "name": null }, "geometry": { "type": "MultiLineString", "coordinates": [ [ [ 72.8225268, 19.1227411 ], [ 72.8224731, 19.1226803 ], [ 72.8224087, 19.1225891 ], [ 72.8223444, 19.1224573 ], [ 72.8222585, 19.1223762 ], [ 72.822162, 19.1223255 ], [ 72.8221834, 19.1222545 ], [ 72.8222907, 19.1221633 ], [ 72.8223873, 19.1220822 ], [ 72.8224409, 19.1220214 ], [ 72.8224946, 19.1219403 ], [ 72.822562, 19.1218125 ] ] ] } },
{ "type": "Feature", "properties": { "full_id": "w73074523", "osm_id": "73074523", "osm_type": "way", "substance": null, "man_made": null, "leisure": null, "waterway": "stream", "natural": null, "usage": null, "route": null, "tunnel": null, "seamark_ty": null, "seamark_sh": null, "start_date": null, "wetland": null, "surface": null, "floating": null, "seasonal": null, "voltage": null, "railway": null, "passenger_": null, "gauge": null, "frequency": null, "electrifie": null, "lit": null, "alt_name_e": null, "tidal": null, "mooring": null, "highway": null, "designatio": null, "covered": null, "toll": null, "to": null, "motor_vehi": null, "horse": null, "from": null, "duration": null, "motorcycle": null, "motorcar": null, "foot": null, "name_gu": null, "type": null, "wikipedia": null, "wikimedia_": null, "wikidata": null, "bicycle": null, "width": null, "name_mr": null, "name_hi": null, "name_en": null, "intermitte": null, "layer": null, "bridge": null, "location": null, "boat": null, "name": null }, "geometry": { "type": "MultiLineString", "coordinates": [ [ [ 72.820101688535175, 19.1229768 ], [ 72.8202045, 19.1229768 ], [ 72.8203268, 19.1227749 ], [ 72.8203739, 19.1226783 ], [ 72.8204221, 19.1225946 ], [ 72.8204785, 19.1225161 ], [ 72.8205026, 19.1224882 ], [ 72.8205321, 19.1224198 ], [ 72.8205616, 19.1223843 ], [ 72.8206164, 19.1222431 ] ] ] } },
{ "type": "Feature", "properties": { "full_id": "w554967608", "osm_id": "554967608", "osm_type": "way", "substance": null, "man_made": null, "leisure": null, "waterway": "drain", "natural": null, "usage": null, "route": null, "tunnel": null, "seamark_ty": null, "seamark_sh": null, "start_date": null, "wetland": null, "surface": null, "floating": null, "seasonal": null, "voltage": null, "railway": null, "passenger_": null, "gauge": null, "frequency": null, "electrifie": null, "lit": null, "alt_name_e": null, "tidal": null, "mooring": null, "highway": null, "designatio": null, "covered": null, "toll": null, "to": null, "motor_vehi": null, "horse": null, "from": null, "duration": null, "motorcycle": null, "motorcar": null, "foot": null, "name_gu": null, "type": null, "wikipedia": null, "wikimedia_": null, "wikidata": null, "bicycle": null, "width": null, "name_mr": null, "name_hi": null, "name_en": null, "intermitte": null, "layer": null, "bridge": null, "location": null, "boat": null, "name": "Irla Nala" }, "geometry": { "type": "MultiLineString", "coordinates": [ [ [ 72.8383542, 19.1103819 ], [ 72.8383884, 19.1100139 ], [ 72.838006130827623, 19.106934625658827 ] ] ] } },
{ "type": "Feature", "properties": { "full_id": "w684921593", "osm_id": "684921593", "osm_type": "way", "substance": null, "man_made": null, "leisure": null, "waterway": "drain", "natural": null, "usage": null, "route": null, "tunnel": "culvert", "seamark_ty": null, "seamark_sh": null, "start_date": null, "wetland": null, "surface": null, "floating": null, "seasonal": null, "voltage": null, "railway": null, "passenger_": null, "gauge": null, "frequency": null, "electrifie": null, "lit": null, "alt_name_e": null, "tidal": null, "mooring": null, "highway": null, "designatio": null, "covered": null, "toll": null, "to": null, "motor_vehi": null, "horse": null, "from": null, "duration": null, "motorcycle": null, "motorcar": null, "foot": null, "name_gu": null, "type": null, "wikipedia": null, "wikimedia_": null, "wikidata": null, "bicycle": null, "width": null, "name_mr": null, "name_hi": null, "name_en": null, "intermitte": null, "layer": "-1", "bridge": null, "location": null, "boat": null, "name": null }, "geometry": { "type": "MultiLineString", "coordinates": [ [ [ 72.8275297, 19.1221264 ], [ 72.8275705, 19.1220021 ] ] ] } },
{ "type": "Feature", "properties": { "full_id": "w684921594", "osm_id": "684921594", "osm_type": "way", "substance": null, "man_made": null, "leisure": null, "waterway": "drain", "natural": null, "usage": null, "route": null, "tunnel": null, "seamark_ty": null, "seamark_sh": null, "start_date": null, "wetland": null, "surface": null, "floating": null, "seasonal": null, "voltage": null, "railway": null, "passenger_": null, "gauge": null, "frequency": null, "electrifie": null, "lit": null, "alt_name_e": null, "tidal": null, "mooring": null, "highway": null, "designatio": null, "covered": null, "toll": null, "to": null, "motor_vehi": null, "horse": null, "from": null, "duration": null, "motorcycle": null, "motorcar": null, "foot": null, "name_gu": null, "type": null, "wikipedia": null, "wikimedia_": null, "wikidata": null, "bicycle": null, "width": null, "name_mr": null, "name_hi": null, "name_en": null, "intermitte": null, "layer": null, "bridge": null, "location": null, "boat": null, "name": null }, "geometry": { "type": "MultiLineString", "coordinates": [ [ [ 72.8275705, 19.1220021 ], [ 72.8275908, 19.1219403 ], [ 72.8275049, 19.1216058 ], [ 72.8272582, 19.1211598 ], [ 72.827108, 19.1209976 ], [ 72.8268719, 19.1208151 ], [ 72.826781, 19.1207211 ] ] ] } },
{ "type": "Feature", "properties": { "full_id": "w684921595", "osm_id": "684921595", "osm_type": "way", "substance": null, "man_made": null, "leisure": null, "waterway": "drain", "natural": null, "usage": null, "route": null, "tunnel": "culvert", "seamark_ty": null, "seamark_sh": null, "start_date": null, "wetland": null, "surface": null, "floating": null, "seasonal": null, "voltage": null, "railway": null, "passenger_": null, "gauge": null, "frequency": null, "electrifie": null, "lit": null, "alt_name_e": null, "tidal": null, "mooring": null, "highway": null, "designatio": null, "covered": null, "toll": null, "to": null, "motor_vehi": null, "horse": null, "from": null, "duration": null, "motorcycle": null, "motorcar": null, "foot": null, "name_gu": null, "type": null, "wikipedia": null, "wikimedia_": null, "wikidata": null, "bicycle": null, "width": null, "name_mr": null, "name_hi": null, "name_en": null, "intermitte": null, "layer": "-1", "bridge": null, "location": null, "boat": null, "name": null }, "geometry": { "type": "MultiLineString", "coordinates": [ [ [ 72.826781, 19.1207211 ], [ 72.8266466, 19.120582 ] ] ] } },
{ "type": "Feature", "properties": { "full_id": "w684921596", "osm_id": "684921596", "osm_type": "way", "substance": null, "man_made": null, "leisure": null, "waterway": "drain", "natural": null, "usage": null, "route": null, "tunnel": null, "seamark_ty": null, "seamark_sh": null, "start_date": null, "wetland": null, "surface": null, "floating": null, "seasonal": null, "voltage": null, "railway": null, "passenger_": null, "gauge": null, "frequency": null, "electrifie": null, "lit": null, "alt_name_e": null, "tidal": null, "mooring": null, "highway": null, "designatio": null, "covered": null, "toll": null, "to": null, "motor_vehi": null, "horse": null, "from": null, "duration": null, "motorcycle": null, "motorcar": null, "foot": null, "name_gu": null, "type": null, "wikipedia": null, "wikimedia_": null, "wikidata": null, "bicycle": null, "width": null, "name_mr": null, "name_hi": null, "name_en": null, "intermitte": null, "layer": null, "bridge": null, "location": null, "boat": null, "name": null }, "geometry": { "type": "MultiLineString", "coordinates": [ [ [ 72.8266466, 19.120582 ], [ 72.8265072, 19.1204704 ], [ 72.8263999, 19.120217 ], [ 72.8261183, 19.1199306 ], [ 72.8258543, 19.1195987 ], [ 72.8253643, 19.1190328 ] ] ] } },
{ "type": "Feature", "properties": { "full_id": "w712610051", "osm_id": "712610051", "osm_type": "way", "substance": null, "man_made": null, "leisure": null, "waterway": "drain", "natural": null, "usage": null, "route": null, "tunnel": null, "seamark_ty": null, "seamark_sh": null, "start_date": null, "wetland": null, "surface": null, "floating": null, "seasonal": null, "voltage": null, "railway": null, "passenger_": null, "gauge": null, "frequency": null, "electrifie": null, "lit": null, "alt_name_e": null, "tidal": null, "mooring": null, "highway": null, "designatio": null, "covered": null, "toll": null, "to": null, "motor_vehi": null, "horse": null, "from": null, "duration": null, "motorcycle": null, "motorcar": null, "foot": null, "name_gu": null, "type": null, "wikipedia": null, "wikimedia_": null, "wikidata": null, "bicycle": null, "width": null, "name_mr": null, "name_hi": null, "name_en": null, "intermitte": null, "layer": null, "bridge": null, "location": null, "boat": null, "name": "Irla Nala" }, "geometry": { "type": "MultiLineString", "coordinates": [ [ [ 72.8218722, 19.1210205 ], [ 72.8209394, 19.1210238 ] ] ] } },
{ "type": "Feature", "properties": { "full_id": "w712610052", "osm_id": "712610052", "osm_type": "way", "substance": null, "man_made": null, "leisure": null, "waterway": "drain", "natural": null, "usage": null, "route": null, "tunnel": null, "seamark_ty": null, "seamark_sh": null, "start_date": null, "wetland": null, "surface": null, "floating": null, "seasonal": null, "voltage": null, "railway": null, "passenger_": null, "gauge": null, "frequency": null, "electrifie": null, "lit": null, "alt_name_e": null, "tidal": null, "mooring": null, "highway": null, "designatio": null, "covered": null, "toll": null, "to": null, "motor_vehi": null, "horse": null, "from": null, "duration": null, "motorcycle": null, "motorcar": null, "foot": null, "name_gu": null, "type": null, "wikipedia": null, "wikimedia_": null, "wikidata": null, "bicycle": null, "width": null, "name_mr": null, "name_hi": null, "name_en": null, "intermitte": null, "layer": null, "bridge": null, "location": null, "boat": null, "name": "Irla Nala" }, "geometry": { "type": "MultiLineString", "coordinates": [ [ [ 72.8246123, 19.1193078 ], [ 72.8236484, 19.1196908 ], [ 72.8231549, 19.1198327 ], [ 72.8227928, 19.1199772 ], [ 72.8225461, 19.1200811 ], [ 72.8222591, 19.1204207 ], [ 72.8218722, 19.1210205 ], [ 72.8218406, 19.1210695 ], [ 72.8215751, 19.1214851 ], [ 72.8213069, 19.121817 ], [ 72.8210038, 19.1221288 ], [ 72.8207999, 19.1222479 ], [ 72.8206524, 19.1222656 ], [ 72.8206164, 19.1222431 ], [ 72.82047, 19.1221516 ], [ 72.8202157, 19.1219607 ] ] ] } },
{ "type": "Feature", "properties": { "full_id": "w712610053", "osm_id": "712610053", "osm_type": "way", "substance": null, "man_made": null, "leisure": null, "waterway": "drain", "natural": null, "usage": null, "route": null, "tunnel": null, "seamark_ty": null, "seamark_sh": null, "start_date": null, "wetland": null, "surface": null, "floating": null, "seasonal": null, "voltage": null, "railway": null, "passenger_": null, "gauge": null, "frequency": null, "electrifie": null, "lit": null, "alt_name_e": null, "tidal": null, "mooring": null, "highway": null, "designatio": null, "covered": null, "toll": null, "to": null, "motor_vehi": null, "horse": null, "from": null, "duration": null, "motorcycle": null, "motorcar": null, "foot": null, "name_gu": null, "type": null, "wikipedia": null, "wikimedia_": null, "wikidata": null, "bicycle": null, "width": null, "name_mr": null, "name_hi": null, "name_en": null, "intermitte": null, "layer": null, "bridge": null, "location": null, "boat": null, "name": "Irla Nala" }, "geometry": { "type": "MultiLineString", "coordinates": [ [ [ 72.8231549, 19.1198327 ], [ 72.8227311, 19.1196401 ], [ 72.8222698, 19.1194475 ], [ 72.8219104, 19.1193158 ], [ 72.8215992, 19.1193259 ], [ 72.8212935, 19.1194982 ], [ 72.821095, 19.1196604 ], [ 72.8209501, 19.1198175 ], [ 72.8208536, 19.1201419 ], [ 72.8208429, 19.1205474 ], [ 72.8209394, 19.1210238 ], [ 72.8209126, 19.1213254 ], [ 72.8206846, 19.1215763 ], [ 72.8204352, 19.121812 ], [ 72.8202157, 19.1219607 ], [ 72.820127227429779, 19.122020621245202 ] ] ] } },
{ "type": "Feature", "properties": { "full_id": "w788752296", "osm_id": "788752296", "osm_type": "way", "substance": null, "man_made": null, "leisure": null, "waterway": "drain", "natural": null, "usage": null, "route": null, "tunnel": "yes", "seamark_ty": null, "seamark_sh": null, "start_date": null, "wetland": null, "surface": null, "floating": null, "seasonal": null, "voltage": null, "railway": null, "passenger_": null, "gauge": null, "frequency": null, "electrifie": null, "lit": null, "alt_name_e": null, "tidal": null, "mooring": null, "highway": null, "designatio": null, "covered": null, "toll": null, "to": null, "motor_vehi": null, "horse": null, "from": null, "duration": null, "motorcycle": null, "motorcar": null, "foot": null, "name_gu": null, "type": null, "wikipedia": null, "wikimedia_": null, "wikidata": null, "bicycle": null, "width": null, "name_mr": null, "name_hi": null, "name_en": null, "intermitte": null, "layer": "-1", "bridge": null, "location": null, "boat": null, "name": "Irla Nala" }, "geometry": { "type": "MultiLineString", "coordinates": [ [ [ 72.8444229, 19.1104822 ], [ 72.844337, 19.1104898 ] ] ] } },
{ "type": "Feature", "properties": { "full_id": "w1123412921", "osm_id": "1123412921", "osm_type": "way", "substance": null, "man_made": null, "leisure": null, "waterway": "drain", "natural": null, "usage": null, "route": null, "tunnel": null, "seamark_ty": null, "seamark_sh": null, "start_date": null, "wetland": null, "surface": null, "floating": null, "seasonal": null, "voltage": null, "railway": null, "passenger_": null, "gauge": null, "frequency": null, "electrifie": null, "lit": null, "alt_name_e": null, "tidal": null, "mooring": null, "highway": null, "designatio": null, "covered": null, "toll": null, "to": null, "motor_vehi": null, "horse": null, "from": null, "duration": null, "motorcycle": null, "motorcar": null, "foot": null, "name_gu": null, "type": null, "wikipedia": null, "wikimedia_": null, "wikidata": null, "bicycle": null, "width": null, "name_mr": null, "name_hi": null, "name_en": null, "intermitte": null, "layer": null, "bridge": null, "location": null, "boat": null, "name": null }, "geometry": { "type": "MultiLineString", "coordinates": [ [ [ 72.8365552, 19.1198581 ], [ 72.8365928, 19.1196984 ], [ 72.8366545, 19.1190395 ], [ 72.8366894, 19.1190066 ], [ 72.8368798, 19.1188038 ], [ 72.8368798, 19.1187227 ], [ 72.8368422, 19.1185251 ], [ 72.8367779, 19.1178408 ], [ 72.836802, 19.1166294 ] ] ] } },
{ "type": "Feature", "properties": { "full_id": "w1459343464", "osm_id": "1459343464", "osm_type": "way", "substance": null, "man_made": null, "leisure": null, "waterway": null, "natural": "coastline", "usage": null, "route": null, "tunnel": null, "seamark_ty": null, "seamark_sh": null, "start_date": null, "wetland": null, "surface": null, "floating": null, "seasonal": null, "voltage": null, "railway": null, "passenger_": null, "gauge": null, "frequency": null, "electrifie": null, "lit": null, "alt_name_e": null, "tidal": null, "mooring": null, "highway": null, "designatio": null, "covered": null, "toll": null, "to": null, "motor_vehi": null, "horse": null, "from": null, "duration": null, "motorcycle": null, "motorcar": null, "foot": null, "name_gu": null, "type": null, "wikipedia": null, "wikimedia_": null, "wikidata": null, "bicycle": null, "width": null, "name_mr": null, "name_hi": null, "name_en": null, "intermitte": null, "layer": null, "bridge": null, "location": null, "boat": null, "name": null }, "geometry": { "type": "MultiLineString", "coordinates": [ [ [ 72.820240233119691, 19.117789676971771 ], [ 72.820808, 19.1166244 ], [ 72.8213337, 19.1153623 ], [ 72.8217173, 19.1143536 ], [ 72.8221518, 19.1132841 ], [ 72.822479, 19.112245 ], [ 72.8227338, 19.1112769 ], [ 72.822994, 19.1104634 ] ] ] } },
{ "type": "Feature", "properties": { "full_id": "w1459343480", "osm_id": "1459343480", "osm_type": "way", "substance": null, "man_made": null, "leisure": null, "waterway": null, "natural": "coastline", "usage": null, "route": null, "tunnel": null, "seamark_ty": null, "seamark_sh": null, "start_date": null, "wetland": null, "surface": null, "floating": null, "seasonal": null, "voltage": null, "railway": null, "passenger_": null, "gauge": null, "frequency": null, "electrifie": null, "lit": null, "alt_name_e": null, "tidal": null, "mooring": null, "highway": null, "designatio": null, "covered": null, "toll": null, "to": null, "motor_vehi": null, "horse": null, "from": null, "duration": null, "motorcycle": null, "motorcar": null, "foot": null, "name_gu": null, "type": null, "wikipedia": null, "wikimedia_": null, "wikidata": null, "bicycle": null, "width": null, "name_mr": null, "name_hi": null, "name_en": null, "intermitte": null, "layer": null, "bridge": null, "location": null, "boat": null, "name": null }, "geometry": { "type": "MultiLineString", "coordinates": [ [ [ 72.822994, 19.1104634 ], [ 72.823222, 19.1090162 ], [ 72.8234902, 19.1077668 ], [ 72.8237236, 19.1063221 ], [ 72.823805508735617, 19.105866187943803 ] ] ] } },
{ "type": "Feature", "properties": { "full_id": "w1487577969", "osm_id": "1487577969", "osm_type": "way", "substance": null, "man_made": null, "leisure": null, "waterway": "drain", "natural": null, "usage": null, "route": null, "tunnel": null, "seamark_ty": null, "seamark_sh": null, "start_date": null, "wetland": null, "surface": null, "floating": null, "seasonal": null, "voltage": null, "railway": null, "passenger_": null, "gauge": null, "frequency": null, "electrifie": null, "lit": null, "alt_name_e": null, "tidal": null, "mooring": null, "highway": null, "designatio": null, "covered": null, "toll": null, "to": null, "motor_vehi": null, "horse": null, "from": null, "duration": null, "motorcycle": null, "motorcar": null, "foot": null, "name_gu": null, "type": null, "wikipedia": null, "wikimedia_": null, "wikidata": null, "bicycle": null, "width": null, "name_mr": null, "name_hi": null, "name_en": null, "intermitte": null, "layer": null, "bridge": null, "location": null, "boat": null, "name": "Irla Nala" }, "geometry": { "type": "MultiLineString", "coordinates": [ [ [ 72.8452296, 19.1104993 ], [ 72.8451558, 19.1104892 ], [ 72.8450378, 19.1104587 ], [ 72.8449198, 19.1104587 ], [ 72.8448554, 19.1104892 ], [ 72.8447911, 19.1105398 ], [ 72.8446623, 19.11055 ], [ 72.8445765, 19.1105297 ], [ 72.8444229, 19.1104822 ] ] ] } },
{ "type": "Feature", "properties": { "full_id": "w1487577970", "osm_id": "1487577970", "osm_type": "way", "substance": null, "man_made": null, "leisure": null, "waterway": "drain", "natural": null, "usage": null, "route": null, "tunnel": "culvert", "seamark_ty": null, "seamark_sh": null, "start_date": null, "wetland": null, "surface": null, "floating": null, "seasonal": null, "voltage": null, "railway": null, "passenger_": null, "gauge": null, "frequency": null, "electrifie": null, "lit": null, "alt_name_e": null, "tidal": null, "mooring": null, "highway": null, "designatio": null, "covered": null, "toll": null, "to": null, "motor_vehi": null, "horse": null, "from": null, "duration": null, "motorcycle": null, "motorcar": null, "foot": null, "name_gu": null, "type": null, "wikipedia": null, "wikimedia_": null, "wikidata": null, "bicycle": null, "width": null, "name_mr": null, "name_hi": null, "name_en": null, "intermitte": null, "layer": "-1", "bridge": null, "location": null, "boat": null, "name": "Irla Nala" }, "geometry": { "type": "MultiLineString", "coordinates": [ [ [ 72.8458908, 19.1104486 ], [ 72.8452296, 19.1104993 ] ] ] } }
]
}
