{
"type": "FeatureCollection",
"name": "site_boundary",
"crs": { "type": "name", "properties": { "name": "urn:ogc:def:crs:OGC:1.3:CRS84" } },
"features": [
{ "type": "Feature", "properties": { "id": null }, "geometry": { "type": "MultiPolygon", "coordinates": [ [ [ [ 72.829727441085581, 19.116257894514806 ], [ 72.830062895951031, 19.116275405925517 ], [ 72.830062895951031, 19.116275405925517 ], [ 72.830304092642891, 19.116248635540178 ], [ 72.830951830107054, 19.116250560127209 ], [ 72.831648453417543, 19.116219766732005 ], [ 72.832740237319413, 19.116227465081352 ], [ 72.833699622054056, 19.116190897918795 ], [ 72.833827947400721, 19.116150481571825 ], [ 72.834176259055965, 19.116035006240338 ], [ 72.834294399851316, 19.115977268544345 ], [ 72.834604010211535, 19.115873340640732 ], [ 72.83485658708436, 19.115746317558699 ], [ 72.835117311598211, 19.115596199245005 ], [ 72.835386183753144, 19.11543838240927 ], [ 72.835728384677608, 19.115226676661319 ], [ 72.836074659422593, 19.114934137363452 ], [ 72.836315014833815, 19.114691637289923 ], [ 72.836514632039737, 19.114491478231091 ], [ 72.836738692168851, 19.114125802401702 ], [ 72.836852759143696, 19.113917944201305 ], [ 72.837015711964867, 19.113613854881763 ], [ 72.837117557478095, 19.113417543758136 ], [ 72.8372438459145, 19.113155795230735 ], [ 72.837341617607194, 19.112867101521413 ], [ 72.837451610761491, 19.112486025053265 ], [ 72.837484201325708, 19.112039510094348 ], [ 72.837492348966776, 19.111708472363688 ], [ 72.837467906043599, 19.111335091802381 ], [ 72.837410872556205, 19.110819286341147 ], [ 72.837382355812508, 19.110642218423784 ], [ 72.837309027042963, 19.110164903962986 ], [ 72.837091077644686, 19.110139883408895 ], [ 72.83632723629546, 19.110001307963827 ], [ 72.835538952023043, 19.109855033756943 ], [ 72.835217120201236, 19.109808841875257 ], [ 72.835013429174765, 19.109789595254085 ], [ 72.834813811968843, 19.1097934445785 ], [ 72.834675302070849, 19.109812691199224 ], [ 72.83450420160861, 19.109851184433964 ], [ 72.834337174966919, 19.109885828337568 ], [ 72.834162000684174, 19.109955116123 ], [ 72.83398275258088, 19.11003980115466 ], [ 72.833713880425947, 19.110182225882834 ], [ 72.83074406526012, 19.1117950811363 ], [ 72.830149287462831, 19.112099173800893 ], [ 72.829803012717846, 19.112222350417273 ], [ 72.829798938897326, 19.112414813696684 ], [ 72.829790791256244, 19.112661166367392 ], [ 72.829745979230466, 19.115359473934912 ], [ 72.829727441085581, 19.116257894514806 ] ] ] ] } }
]
}
